STARLINK-1698
1 26547C 20070R   21325.16788482  .00002314  00000-0  15502-3 0  3251
2 26547  53.0548  22.4806 0001261  72.5168 194.7541 15.06399508    12
